COSMOS 2433 (720)       
1 32275U 07052A   25070.22713652 -.00000070  00000+0  00000+0 0  9991
2 32275  65.8215 331.4729 0002261 282.6123  77.4075  2.13104002135194
COSMOS 2432 (719)       
1 32276U 07052B   25071.39514119 -.00000066  00000+0  00000+0 0  9993
2 32276  65.8363 331.5528 0010979 331.5886 149.8906  2.13103272135243
COSMOS 2434 (721)       
1 32393U 07065A   25070.38495074 -.00000020  00000+0  00000+0 0  9993
2 32393  64.3176 207.5318 0003786  73.6686 299.1296  2.13101349133914
COSMOS 2436 (723)       
1 32395U 07065C   25071.53295461 -.00000020  00000+0  00000+0 0  9991
2 32395  64.3261 207.5603 0017095   6.3805 301.3816  2.13100249133880
COSMOS 2456 (730)       
1 36111U 09070A   25070.23346462  .00000047  00000+0  00000+0 0  9991
2 36111  64.7454  86.7970 0006327 303.3928 108.4654  2.13103681118606
COSMOS 2457 (733)       
1 36112U 09070B   25071.48744422  .00000044  00000+0  00000+0 0  9995
2 36112  64.7311  86.6071 0002740 200.0240 225.5188  2.13101135118633
COSMOS 2460 (732)       
1 36402U 10007C   25071.16979132 -.00000064  00000+0  00000+0 0  9995
2 36402  65.6721 330.0594 0002095  10.2963 167.0199  2.13106210116888
COSMOS 2476 (744)       
1 37867U 11064A   25071.21502804  .00000048  00000+0  00000+0 0  9990
2 37867  65.0135  88.4975 0024823 241.3489 114.1992  2.13101584103910
COSMOS 2477 (745)       
1 37868U 11064B   25066.75960111  .00000028  00000+0  00000+0 0  9991
2 37868  65.0177  88.7236 0022031 242.6007 114.3545  2.13102957103819
COSMOS 2475 (743)       
1 37869U 11064C   25069.40322271  .00000047  00000+0  00000+0 0  9997
2 37869  65.0262  88.6513 0027511 255.2351 287.0000  2.13101696103882
COSMOS 2485 (747)       
1 39155U 13019A   25070.69186074  .00000050  00000+0  00000+0 0  9995
2 39155  65.1681  89.1547 0025093 237.3794 122.4357  2.13104494 92429
COSMOS 2492 (754)       
1 39620U 14012A   25071.11750474 -.00000064  00000+0  00000+0 0  9991
2 39620  65.5519 329.5992 0013708 326.8062  33.1582  2.13103243 85394
COSMOS 2500 (755)       
1 40001U 14032A   25071.29332173 -.00000063  00000+0  00000+0 0  9998
2 40001  65.4883 329.3774 0004755 205.7176 154.3097  2.13106020 83617
COSMOS 2501 (702K)      
1 40315U 14075A   25068.73389124 -.00000008  00000+0  00000+0 0  9995
2 40315  63.6178 206.4552 0019825 205.3824 154.4851  2.13101310 79959
COSMOS 2514 (751)       
1 41330U 16008A   25071.06366763 -.00000063  00000+0  00000+0 0  9996
2 41330  65.2810 328.8266 0008763 213.5198 146.4756  2.13102637 70772
COSMOS 2522 (752)       
1 42939U 17055A   25070.43350857 -.00000020  00000+0  00000+0 0  9995
2 42939  64.0793 207.6406 0006885 229.7316 130.1677  2.13101793 58117
COSMOS 2527 (756)       
1 43508U 18053A   25071.33194267  .00000049  00000+0  00000+0 0  9998
2 43508  65.3274  89.3410 0009782 244.8535 115.1020  2.13102307 52434
COSMOS 2529 (757)       
1 43687U 18086A   25070.49164271 -.00000020  00000+0  00000+0 0  9990
2 43687  64.2949 208.2233 0007841 257.1613 102.7103  2.13102019 49421
COSMOS 2534 (758)       
1 44299U 19030A   25070.31442910 -.00000019  00000+0  00000+0 0  9998
2 44299  64.3684 208.2078 0009772 284.1255  74.0628  2.13102263 45051
COSMOS 2544 (759)       
1 44850U 19088A   25069.86846169  .00000050  00000+0  00000+0 0  9990
2 44850  65.3137  89.2220 0015644 260.4515  99.4298  2.13102072 40849
COSMOS 2545 (760)       
1 45358U 20018A   25071.00365067 -.00000064  00000+0  00000+0 0  9997
2 45358  64.6193 328.6207 0008205 254.8259 105.1339  2.13102563 38819
COSMOS 2547 (705K)      
1 46805U 20075A   25069.31232953 -.00000011  00000+0  00000+0 0  9998
2 46805  64.5983 207.9621 0006531 232.7139 127.1893  2.13103032 34024
COSMOS 2557 (706K)      
1 52984U 22075A   25070.41792007 -.00000070  00000+0  00000+0 0  9994
2 52984  64.5535 330.7466 0012051 285.7008  74.2125  2.13101884 20850
COSMOS 2559 (707K)      
1 54031U 22130A   25071.30014564 -.00000068  00000+0  00000+0 0  9992
2 54031  64.5253 330.8240 0005499 231.0596 128.9401  2.13101316 18847
COSMOS 2564 (761)       
1 54377U 22161A   25070.08165428 -.00000018  00000+0  00000+0 0  9994
2 54377  64.7398 208.0893 0008811 209.9437 149.9664  2.13101992 17765
COSMOS 2569 (703K)      
1 57517U 23114A   25070.56622275  .00000049  00000+0  00000+0 0  9996
2 57517  65.0448  88.2516 0012880 292.8220  67.0985  2.13104073 12401
